{
  "type": "FeatureCollection",
  "features": [
    {
      "type": "Feature",
      "properties": {
        "norad_id": 31439,
        "name": "FENGYUN 1C DEB",
        "group": "fengyun-1c-debris",
        "lat": 13.962513571859883,
        "lon": -175.08682413015845,
        "alt_km": 824.3902511056231,
        "timestamp": "2025-12-22T23:36:20.995822+00:00",
        "meta_object_name": "FENGYUN 1C DEB",
        "meta_object_id": "1999-025BUB",
        "meta_epoch": "2025-12-16T06:53:28.781952",
        "meta_mean_motion": 13.95585021,
        "meta_eccentricity": 0.01379888,
        "meta_inclination": 98.9165,
        "meta_ra_of_asc_node": 356.1962,
        "meta_arg_of_pericenter": 152.0725,
        "meta_mean_anomaly": 227.5292,
        "meta_ephemeris_type": 0,
        "meta_classification_type": "U",
        "meta_norad_cat_id": 31439,
        "meta_element_set_no": 999,
        "meta_rev_at_epoch": 63282,
        "meta_bstar": 0.00051197114,
        "meta_mean_motion_dot": 7.12e-06,
        "meta_mean_motion_ddot": 0,
        "tle_line1": "1 31439U 99025BUB 25350.28713868  .00000712  00000+0  51197-3 0  9998",
        "tle_line2": "2 31439  98.9165 356.1962 0137988 152.0725 227.5292 13.95585021632829"
      },
      "geometry": {
        "type": "Point",
        "coordinates": [
          -175.08682413015845,
          13.962513571859883
        ]
      }
    },
    {
      "type": "Feature",
      "properties": {
        "norad_id": 31440,
        "name": "FENGYUN 1C DEB",
        "group": "fengyun-1c-debris",
        "lat": -1.2450876993416808,
        "lon": -95.04779860108275,
        "alt_km": 789.0160354217915,
        "timestamp": "2025-12-22T23:36:20.995833+00:00",
        "meta_object_name": "FENGYUN 1C DEB",
        "meta_object_id": "1999-025BUC",
        "meta_epoch": "2025-12-20T23:57:52.458048",
        "meta_mean_motion": 14.36774985,
        "meta_eccentricity": 0.00371554,
        "meta_inclination": 98.7467,
        "meta_ra_of_asc_node": 83.1278,
        "meta_arg_of_pericenter": 316.3908,
        "meta_mean_anomaly": 43.4343,
        "meta_ephemeris_type": 0,
        "meta_classification_type": "U",
        "meta_norad_cat_id": 31440,
        "meta_element_set_no": 999,
        "meta_rev_at_epoch": 96444,
        "meta_bstar": 0.0011949731,
        "meta_mean_motion_dot": 3.51e-05,
        "meta_mean_motion_ddot": 0,
        "tle_line1": "1 31440U 99025BUC 25354.99852382  .00003510  00000+0  11950-2 0  9998",
        "tle_line2": "2 31440  98.7467  83.1278 0037155 316.3908  43.4343 14.36774985964447"
      },
      "geometry": {
        "type": "Point",
        "coordinates": [
          -95.04779860108275,
          -1.2450876993416808
        ]
      }
    },
    {
      "type": "Feature",
      "properties": {
        "norad_id": 31441,
        "name": "FENGYUN 1C DEB",
        "group": "fengyun-1c-debris",
        "lat": 15.570325023512227,
        "lon": 43.95994532090215,
        "alt_km": 697.6017537157586,
        "timestamp": "2025-12-22T23:36:20.995843+00:00",
        "meta_object_name": "FENGYUN 1C DEB",
        "meta_object_id": "1999-025BUD",
        "meta_epoch": "2025-12-20T20:24:46.910016",
        "meta_mean_motion": 14.75706647,
        "meta_eccentricity": 0.01016008,
        "meta_inclination": 99.3109,
        "meta_ra_of_asc_node": 218.8859,
        "meta_arg_of_pericenter": 310.6714,
        "meta_mean_anomaly": 48.5694,
        "meta_ephemeris_type": 0,
        "meta_classification_type": "U",
        "meta_norad_cat_id": 31441,
        "meta_element_set_no": 999,
        "meta_rev_at_epoch": 64210,
        "meta_bstar": 0.0031315146,
        "meta_mean_motion_dot": 0.00023297,
        "meta_mean_motion_ddot": 0,
        "tle_line1": "1 31441U 99025BUD 25354.85054294  .00023297  00000+0  31315-2 0  9991",
        "tle_line2": "2 31441  99.3109 218.8859 0101600 310.6714  48.5694 14.75706647642103"
      },
      "geometry": {
        "type": "Point",
        "coordinates": [
          43.95994532090215,
          15.570325023512227
        ]
      }
    },
    {
      "type": "Feature",
      "properties": {
        "norad_id": 31442,
        "name": "FENGYUN 1C DEB",
        "group": "fengyun-1c-debris",
        "lat": 66.79095527477836,
        "lon": 62.33473948225504,
        "alt_km": 767.7387015975037,
        "timestamp": "2025-12-22T23:36:20.995853+00:00",
        "meta_object_name": "FENGYUN 1C DEB",
        "meta_object_id": "1999-025BUE",
        "meta_epoch": "2025-12-21T12:07:24.943584",
        "meta_mean_motion": 14.33945698,
        "meta_eccentricity": 0.0078669,
        "meta_inclination": 98.5303,
        "meta_ra_of_asc_node": 81.3658,
        "meta_arg_of_pericenter": 346.6775,
        "meta_mean_anomaly": 13.2332,
        "meta_ephemeris_type": 0,
        "meta_classification_type": "U",
        "meta_norad_cat_id": 31442,
        "meta_element_set_no": 999,
        "meta_rev_at_epoch": 97486,
        "meta_bstar": 0.00027837552,
        "meta_mean_motion_dot": 7.6e-06,
        "meta_mean_motion_ddot": 0,
        "tle_line1": "1 31442U 99025BUE 25355.50514981  .00000760  00000+0  27838-3 0  9995",
        "tle_line2": "2 31442  98.5303  81.3658 0078669 346.6775  13.2332 14.33945698974869"
      },
      "geometry": {
        "type": "Point",
        "coordinates": [
          62.33473948225504,
          66.79095527477836
        ]
      }
    },
    {
      "type": "Feature",
      "properties": {
        "norad_id": 31443,
        "name": "FENGYUN 1C DEB",
        "group": "fengyun-1c-debris",
        "lat": -41.90932572637231,
        "lon": 105.7670075416348,
        "alt_km": 781.0710906077338,
        "timestamp": "2025-12-22T23:36:20.995863+00:00",
        "meta_object_name": "FENGYUN 1C DEB",
        "meta_object_id": "1999-025BUF",
        "meta_epoch": "2025-12-22T12:11:57.510528",
        "meta_mean_motion": 14.4877707,
        "meta_eccentricity": 0.01913588,
        "meta_inclination": 99.2113,
        "meta_ra_of_asc_node": 96.8738,
        "meta_arg_of_pericenter": 69.2188,
        "meta_mean_anomaly": 292.9389,
        "meta_ephemeris_type": 0,
        "meta_classification_type": "U",
        "meta_norad_cat_id": 31443,
        "meta_element_set_no": 999,
        "meta_rev_at_epoch": 67083,
        "meta_bstar": 0.0011434447,
        "meta_mean_motion_dot": 5.391e-05,
        "meta_mean_motion_ddot": 0,
        "tle_line1": "1 31443U 99025BUF 25356.50830452  .00005391  00000+0  11434-2 0  9990",
        "tle_line2": "2 31443  99.2113  96.8738 0191358  69.2188 292.9389 14.48777070670835"
      },
      "geometry": {
        "type": "Point",
        "coordinates": [
          105.7670075416348,
          -41.90932572637231
        ]
      }
    },
    {
      "type": "Feature",
      "properties": {
        "norad_id": 31444,
        "name": "FENGYUN 1C DEB",
        "group": "fengyun-1c-debris",
        "lat": -7.5354502897327835,
        "lon": -58.82781101976198,
        "alt_km": 635.5351705033136,
        "timestamp": "2025-12-22T23:36:20.995873+00:00",
        "meta_object_name": "FENGYUN 1C DEB",
        "meta_object_id": "1999-025BUG",
        "meta_epoch": "2025-12-22T02:24:16.096320",
        "meta_mean_motion": 14.70070692,
        "meta_eccentricity": 0.00626396,
        "meta_inclination": 98.9296,
        "meta_ra_of_asc_node": 299.0143,
        "meta_arg_of_pericenter": 44.119,
        "meta_mean_anomaly": 316.4986,
        "meta_ephemeris_type": 0,
        "meta_classification_type": "U",
        "meta_norad_cat_id": 31444,
        "meta_element_set_no": 999,
        "meta_rev_at_epoch": 97626,
        "meta_bstar": 0.0017329246,
        "meta_mean_motion_dot": 0.00010681,
        "meta_mean_motion_ddot": 0,
        "tle_line1": "1 31444U 99025BUG 25356.10018630  .00010681  00000+0  17329-2 0  9990",
        "tle_line2": "2 31444  98.9296 299.0143 0062639  44.1190 316.4986 14.70070692976267"
      },
      "geometry": {
        "type": "Point",
        "coordinates": [
          -58.82781101976198,
          -7.5354502897327835
        ]
      }
    },
    {
      "type": "Feature",
      "properties": {
        "norad_id": 31447,
        "name": "FENGYUN 1C DEB",
        "group": "fengyun-1c-debris",
        "lat": 39.5549550636819,
        "lon": -134.00796644851482,
        "alt_km": 973.3374733660194,
        "timestamp": "2025-12-22T23:36:20.995884+00:00",
        "meta_object_name": "FENGYUN 1C DEB",
        "meta_object_id": "1999-025BUK",
        "meta_epoch": "2025-12-14T21:01:38.356896",
        "meta_mean_motion": 14.2403744,
        "meta_eccentricity": 0.02304397,
        "meta_inclination": 98.9919,
        "meta_ra_of_asc_node": 30.1793,
        "meta_arg_of_pericenter": 349.1545,
        "meta_mean_anomaly": 10.471,
        "meta_ephemeris_type": 0,
        "meta_classification_type": "U",
        "meta_norad_cat_id": 31447,
        "meta_element_set_no": 999,
        "meta_rev_at_epoch": 64882,
        "meta_bstar": 0.00018562598,
        "meta_mean_motion_dot": 5.08e-06,
        "meta_mean_motion_ddot": 0,
        "tle_line1": "1 31447U 99025BUK 25348.87613839  .00000508  00000+0  18563-3 0  9999",
        "tle_line2": "2 31447  98.9919  30.1793 0230439 349.1545  10.4710 14.24037440648821"
      },
      "geometry": {
        "type": "Point",
        "coordinates": [
          -134.00796644851482,
          39.5549550636819
        ]
      }
    }
  ]
}